{
  "links" : {
    "next" : "https://api.nasa.gov/neo/rest/v1/feed?start_date=2006-10-23&end_date=2006-10-23&detailed=true&api_key=t0TVs3DtDT2H8Oy2Zy8m2eVrNsAVKAexjcZXUckd",
    "prev" : "https://api.nasa.gov/neo/rest/v1/feed?start_date=2006-10-21&end_date=2006-10-21&detailed=true&api_key=t0TVs3DtDT2H8Oy2Zy8m2eVrNsAVKAexjcZXUckd",
    "self" : "https://api.nasa.gov/neo/rest/v1/feed?start_date=2006-10-22&end_date=2006-10-22&detailed=true&api_key=t0TVs3DtDT2H8Oy2Zy8m2eVrNsAVKAexjcZXUckd"
  },
  "element_count" : 11,
  "near_earth_objects" : {
    "2006-10-22" : [ {
      "links" : {
        "self" : "https://api.nasa.gov/neo/rest/v1/neo/3355869?api_key=t0TVs3DtDT2H8Oy2Zy8m2eVrNsAVKAexjcZXUckd"
      },
      "neo_reference_id" : "3355869",
      "name" : "(2006 UP217)",
      "nasa_jpl_url" : "http://ssd.jpl.nasa.gov/sbdb.cgi?sstr=3355869",
      "absolute_magnitude_h" : 24.9,
      "estimated_diameter" : {
        "kilometers" : {
          "estimated_diameter_min" : 0.0278326768,
          "estimated_diameter_max" : 0.0622357573
        },
        "meters" : {
          "estimated_diameter_min" : 27.8326768072,
          "estimated_diameter_max" : 62.2357573367
        },
        "miles" : {
          "estimated_diameter_min" : 0.0172944182,
          "estimated_diameter_max" : 0.0386714948
        },
        "feet" : {
          "estimated_diameter_min" : 91.3145593761,
          "estimated_diameter_max" : 204.1855621004
        }
      },
      "is_potentially_hazardous_asteroid" : false,
      "close_approach_data" : [ {
        "close_approach_date" : "2006-10-22",
        "epoch_date_close_approach" : 1161500400000,
        "relative_velocity" : {
          "kilometers_per_second" : "15.2374431796",
          "kilometers_per_hour" : "54854.7954464398",
          "miles_per_hour" : "34084.6366483725"
        },
        "miss_distance" : {
          "astronomical" : "0.0165377733",
          "lunar" : "6.4331936836",
          "kilometers" : "2474015.5",
          "miles" : "1537282"
        },
        "orbiting_body" : "Earth"
      } ],
      "orbital_data" : {
        "orbit_id" : "6",
        "orbit_determination_date" : "2017-04-06 09:07:43",
        "orbit_uncertainty" : "9",
        "minimum_orbit_intersection" : ".0010863",
        "jupiter_tisserand_invariant" : "5.142",
        "epoch_osculation" : "2454040.5",
        "eccentricity" : ".4937118842802246",
        "semi_major_axis" : "1.208945827252423",
        "inclination" : "1.535722552153813",
        "ascending_node_longitude" : "206.9584712845233",
        "orbital_period" : "485.5217476860482",
        "perihelion_distance" : ".6120749048869145",
        "perihelion_argument" : "82.87282546066261",
        "aphelion_distance" : "1.805816749617932",
        "perihelion_time" : "2453973.042092280661",
        "mean_anomaly" : "50.01804119939298",
        "mean_motion" : ".7414703908027327",
        "equinox" : "J2000"
      }
    }, {
      "links" : {
        "self" : "https://api.nasa.gov/neo/rest/v1/neo/3355873?api_key=t0TVs3DtDT2H8Oy2Zy8m2eVrNsAVKAexjcZXUckd"
      },
      "neo_reference_id" : "3355873",
      "name" : "(2006 VB)",
      "nasa_jpl_url" : "http://ssd.jpl.nasa.gov/sbdb.cgi?sstr=3355873",
      "absolute_magnitude_h" : 25.1,
      "estimated_diameter" : {
        "kilometers" : {
          "estimated_diameter_min" : 0.0253837029,
          "estimated_diameter_max" : 0.0567596853
        },
        "meters" : {
          "estimated_diameter_min" : 25.3837029364,
          "estimated_diameter_max" : 56.7596852866
        },
        "miles" : {
          "estimated_diameter_min" : 0.0157726969,
          "estimated_diameter_max" : 0.0352688224
        },
        "feet" : {
          "estimated_diameter_min" : 83.279867942,
          "estimated_diameter_max" : 186.2194458756
        }
      },
      "is_potentially_hazardous_asteroid" : false,
      "close_approach_data" : [ {
        "close_approach_date" : "2006-10-22",
        "epoch_date_close_approach" : 1161500400000,
        "relative_velocity" : {
          "kilometers_per_second" : "8.5990114572",
          "kilometers_per_hour" : "30956.4412460672",
          "miles_per_hour" : "19235.1287287021"
        },
        "miss_distance" : {
          "astronomical" : "0.0395126213",
          "lunar" : "15.3704099655",
          "kilometers" : "5911004.5",
          "miles" : "3672927.75"
        },
        "orbiting_body" : "Earth"
      } ],
      "orbital_data" : {
        "orbit_id" : "8",
        "orbit_determination_date" : "2017-04-06 09:07:42",
        "orbit_uncertainty" : "8",
        "minimum_orbit_intersection" : ".0381959",
        "jupiter_tisserand_invariant" : "4.041",
        "epoch_osculation" : "2454041.5",
        "eccentricity" : ".4247920675726925",
        "semi_major_axis" : "1.729390900403134",
        "inclination" : "8.694600362571494",
        "ascending_node_longitude" : "37.00774454835889",
        "orbital_period" : "830.688467413763",
        "perihelion_distance" : ".9947593641794864",
        "perihelion_argument" : "325.0601178158359",
        "aphelion_distance" : "2.464022436626781",
        "perihelion_time" : "2454008.415918328193",
        "mean_anomaly" : "14.33782924533856",
        "mean_motion" : ".4333754639941153",
        "equinox" : "J2000"
      }
    }, {
      "links" : {
        "self" : "https://api.nasa.gov/neo/rest/v1/neo/3358226?api_key=t0TVs3DtDT2H8Oy2Zy8m2eVrNsAVKAexjcZXUckd"
      },
      "neo_reference_id" : "3358226",
      "name" : "(2006 VB3)",
      "nasa_jpl_url" : "http://ssd.jpl.nasa.gov/sbdb.cgi?sstr=3358226",
      "absolute_magnitude_h" : 21.2,
      "estimated_diameter" : {
        "kilometers" : {
          "estimated_diameter_min" : 0.1529519353,
          "estimated_diameter_max" : 0.3420109247
        },
        "meters" : {
          "estimated_diameter_min" : 152.9519353442,
          "estimated_diameter_max" : 342.0109247198
        },
        "miles" : {
          "estimated_diameter_min" : 0.095039897,
          "estimated_diameter_max" : 0.2125156703
        },
        "feet" : {
          "estimated_diameter_min" : 501.8108275547,
          "estimated_diameter_max" : 1122.0831222578
        }
      },
      "is_potentially_hazardous_asteroid" : false,
      "close_approach_data" : [ {
        "close_approach_date" : "2006-10-22",
        "epoch_date_close_approach" : 1161500400000,
        "relative_velocity" : {
          "kilometers_per_second" : "6.3415247058",
          "kilometers_per_hour" : "22829.4889407957",
          "miles_per_hour" : "14185.3566143517"
        },
        "miss_distance" : {
          "astronomical" : "0.3056419138",
          "lunar" : "118.8947067261",
          "kilometers" : "45723380",
          "miles" : "28411192"
        },
        "orbiting_body" : "Earth"
      } ],
      "orbital_data" : {
        "orbit_id" : "11",
        "orbit_determination_date" : "2017-04-06 09:07:40",
        "orbit_uncertainty" : "6",
        "minimum_orbit_intersection" : ".301639",
        "jupiter_tisserand_invariant" : "3.048",
        "epoch_osculation" : "2458000.5",
        "eccentricity" : ".5463755470551944",
        "semi_major_axis" : "2.837262890938804",
        "inclination" : "11.02015107446526",
        "ascending_node_longitude" : "46.46611819602533",
        "orbital_period" : "1745.612301179473",
        "perihelion_distance" : "1.287051826762712",
        "perihelion_argument" : "336.6136253530119",
        "aphelion_distance" : "4.387473955114896",
        "perihelion_time" : "2457507.490808015504",
        "mean_anomaly" : "101.6739564647298",
        "mean_motion" : ".2062313606273029",
        "equinox" : "J2000"
      }
    } ]
  }
}